{"type": "FeatureCollection", "features": [ {"type": "Feature", "properties": {"norad_id": 66052, "name": "HRC MONOBLOCK CAMERA", "group": "stations", "lat": 19.9839142309017, "lon": -63.91443487298002, "alt_km": 400.31807113730883, "timestamp": "2025-12-14T11:29:48.821780+00:00", "meta": {"OBJECT_NAME": "HRC MONOBLOCK CAMERA", "OBJECT_ID": "1998-067XR", "EPOCH": "2025-12-13T16:19:09.679296", "MEAN_MOTION": 15.5422236, "ECCENTRICITY": 0.00031862, "INCLINATION": 51.6291, "RA_OF_ASC_NODE": 136.8186, "ARG_OF_PERICENTER": 188.7362, "MEAN_ANOMALY": 171.3574, "EPHEMERIS_TYPE": 0, "CLASSIFICATION_TYPE": "U", "NORAD_CAT_ID": 66052, "ELEMENT_SET_NO": 999, "REV_AT_EPOCH": 898, "BSTAR": 0.00064745279, "MEAN_MOTION_DOT": 0.00042763, "MEAN_MOTION_DDOT": 0}, "tle": {"line1": "1 66052U 98067XR  25347.67997314  .00042763  00000+0  64745-3 0  9996", "line2": "2 66052  51.6291 136.8186 0003186 188.7362 171.3574 15.54222360  8984"}}, "geometry": {"type": "Point", "coordinates": [-63.91443487298002, 19.9839142309017]}}, {"type": "Feature", "properties": {"norad_id": 66174, "name": "HTV-X1", "group": "stations", "lat": 13.920871525280917, "lon": 145.18972785261613, "alt_km": 418.09458833228564, "timestamp": "2025-12-14T11:29:48.821790+00:00", "meta": {"OBJECT_NAME": "HTV-X1", "OBJECT_ID": "2025-241A", "EPOCH": "2025-12-13T13:45:03.960000", "MEAN_MOTION": 15.49569091, "ECCENTRICITY": 0.00032302, "INCLINATION": 51.6303, "RA_OF_ASC_NODE": 138.3533, "ARG_OF_PERICENTER": 244.1175, "MEAN_ANOMALY": 115.9481, "EPHEMERIS_TYPE": 0, "CLASSIFICATION_TYPE": "U", "NORAD_CAT_ID": 66174, "ELEMENT_SET_NO": 999, "REV_AT_EPOCH": 51, "BSTAR": 0.00023044054, "MEAN_MOTION_DOT": 0.00012521, "MEAN_MOTION_DDOT": 0}, "tle": {"line1": "1 66174U 25241A   25347.57296250  .00012521  00000+0  23044-3 0  9991", "line2": "2 66174  51.6303 138.3533 0003230 244.1175 115.9481 15.49569091   516"}}, "geometry": {"type": "Point", "coordinates": [145.18972785261613, 13.920871525280917]}}, {"type": "Feature", "properties": {"norad_id": 66515, "name": "SZ-21 MODULE", "group": "stations", "lat": 32.39782964758818, "lon": 139.51522396278736, "alt_km": 378.26922824982466, "timestamp": "2025-12-14T11:29:48.821800+00:00", "meta": {"OBJECT_NAME": "SZ-21 MODULE", "OBJECT_ID": "2025-246C", "EPOCH": "2025-12-13T05:48:56.217312", "MEAN_MOTION": 15.62521016, "ECCENTRICITY": 0.00062862, "INCLINATION": 41.4775, "RA_OF_ASC_NODE": 12.9802, "ARG_OF_PERICENTER": 263.0797, "MEAN_ANOMALY": 96.9328, "EPHEMERIS_TYPE": 0, "CLASSIFICATION_TYPE": "U", "NORAD_CAT_ID": 66515, "ELEMENT_SET_NO": 999, "REV_AT_EPOCH": 452, "BSTAR": 0.00043386364, "MEAN_MOTION_DOT": 0.00039667, "MEAN_MOTION_DDOT": 0}, "tle": {"line1": "1 66515U 25246C   25347.24231733  .00039667  00000+0  43386-3 0  9995", "line2": "2 66515  41.4775  12.9802 0006286 263.0797  96.9328 15.62521016  4528"}}, "geometry": {"type": "Point", "coordinates": [139.51522396278736, 32.39782964758818]}}, {"type": "Feature", "properties": {"norad_id": 66645, "name": "SHENZHOU-22", "group": "stations", "lat": -11.063125747687819, "lon": -161.06207021816024, "alt_km": 395.62631630859687, "timestamp": "2025-12-14T11:29:48.821810+00:00", "meta": {"OBJECT_NAME": "SHENZHOU-22", "OBJECT_ID": "2025-272A", "EPOCH": "2025-12-13T13:08:11.407200", "MEAN_MOTION": 15.59213599, "ECCENTRICITY": 0.0008179, "INCLINATION": 41.4684, "RA_OF_ASC_NODE": 11.8051, "ARG_OF_PERICENTER": 37.3165, "MEAN_ANOMALY": 322.8241, "EPHEMERIS_TYPE": 0, "CLASSIFICATION_TYPE": "U", "NORAD_CAT_ID": 66645, "ELEMENT_SET_NO": 999, "REV_AT_EPOCH": 26357, "BSTAR": 0.00029086041, "MEAN_MOTION_DOT": 0.00023242, "MEAN_MOTION_DDOT": 0}, "tle": {"line1": "1 66645U 25272A   25347.54735425  .00023242  00000+0  29086-3 0  9991", "line2": "2 66645  41.4684  11.8051 0008179  37.3165 322.8241 15.59213599263576"}}, "geometry": {"type": "Point", "coordinates": [-161.06207021816024, -11.063125747687819]}}, {"type": "Feature", "properties": {"norad_id": 66664, "name": "SOYUZ-MS 28", "group": "stations", "lat": 13.920873114604403, "lon": 145.1897292138987, "alt_km": 418.09458814920526, "timestamp": "2025-12-14T11:29:48.821822+00:00", "meta": {"OBJECT_NAME": "SOYUZ-MS 28", "OBJECT_ID": "2025-275A", "EPOCH": "2025-12-13T13:45:03.960000", "MEAN_MOTION": 15.49569091, "ECCENTRICITY": 0.00032302, "INCLINATION": 51.6303, "RA_OF_ASC_NODE": 138.3533, "ARG_OF_PERICENTER": 244.1175, "MEAN_ANOMALY": 115.9481, "EPHEMERIS_TYPE": 0, "CLASSIFICATION_TYPE": "U", "NORAD_CAT_ID": 66664, "ELEMENT_SET_NO": 999, "REV_AT_EPOCH": 128, "BSTAR": 0.00023044054, "MEAN_MOTION_DOT": 0.00012521, "MEAN_MOTION_DDOT": 0}, "tle": {"line1": "1 66664U 25275A   25347.57296250  .00012521  00000+0  23044-3 0  9992", "line2": "2 66664  51.6303 138.3533 0003230 244.1175 115.9481 15.49569091  1285"}}, "geometry": {"type": "Point", "coordinates": [145.1897292138987, 13.920873114604403]}}, {"type": "Feature", "properties": {"norad_id": 66906, "name": "1998-067XS", "group": "stations", "lat": 39.35987166349668, "lon": 174.32223152544591, "alt_km": 411.6217262397813, "timestamp": "2025-12-14T11:29:48.821833+00:00", "meta": {"OBJECT_NAME": "1998-067XS", "OBJECT_ID": "1998-067XS", "EPOCH": "2025-12-13T16:42:15.922368", "MEAN_MOTION": 15.50633628, "ECCENTRICITY": 0.00035389, "INCLINATION": 51.6301, "RA_OF_ASC_NODE": 137.6756, "ARG_OF_PERICENTER": 207.2651, "MEAN_ANOMALY": 152.8153, "EPHEMERIS_TYPE": 0, "CLASSIFICATION_TYPE": "U", "NORAD_CAT_ID": 66906, "ELEMENT_SET_NO": 999, "REV_AT_EPOCH": 176, "BSTAR": 0.00054648789, "MEAN_MOTION_DOT": 0.00031569, "MEAN_MOTION_DDOT": 0}, "tle": {"line1": "1 66906U 98067XS  25347.69601762  .00031569  00000+0  54649-3 0  9999", "line2": "2 66906  51.6301 137.6756 0003538 207.2651 152.8153 15.50633628  1760"}}, "geometry": {"type": "Point", "coordinates": [174.32223152544591, 39.35987166349668]}}, {"type": "Feature", "properties": {"norad_id": 66907, "name": "1998-067XT", "group": "stations", "lat": 49.28814134613694, "lon": -159.21850980040685, "alt_km": 407.72615405503893, "timestamp": "2025-12-14T11:29:48.821843+00:00", "meta": {"OBJECT_NAME": "1998-067XT", "OBJECT_ID": "1998-067XT", "EPOCH": "2025-12-13T16:37:31.235232", "MEAN_MOTION": 15.51604707, "ECCENTRICITY": 0.00043667, "INCLINATION": 51.6303, "RA_OF_ASC_NODE": 137.6541, "ARG_OF_PERICENTER": 232.3065, "MEAN_ANOMALY": 127.7529, "EPHEMERIS_TYPE": 0, "CLASSIFICATION_TYPE": "U", "NORAD_CAT_ID": 66907, "ELEMENT_SET_NO": 999, "REV_AT_EPOCH": 176, "BSTAR": 0.0011074189, "MEAN_MOTION_DOT": 0.00067037, "MEAN_MOTION_DDOT": 0}, "tle": {"line1": "1 66907U 98067XT  25347.69272263  .00067037  00000+0  11074-2 0  9993", "line2": "2 66907  51.6303 137.6541 0004366 232.3065 127.7529 15.51604707  1768"}}, "geometry": {"type": "Point", "coordinates": [-159.21850980040685, 49.28814134613694]}}, {"type": "Feature", "properties": {"norad_id": 66908, "name": "1998-067XU", "group": "stations", "lat": 49.9611682465498, "lon": -155.70775516872013, "alt_km": 407.3688315488398, "timestamp": "2025-12-14T11:29:48.821852+00:00", "meta": {"OBJECT_NAME": "1998-067XU", "OBJECT_ID": "1998-067XU", "EPOCH": "2025-12-13T16:36:58.397184", "MEAN_MOTION": 15.51689462, "ECCENTRICITY": 0.0004467, "INCLINATION": 51.6298, "RA_OF_ASC_NODE": 137.651, "ARG_OF_PERICENTER": 231.591, "MEAN_ANOMALY": 128.4679, "EPHEMERIS_TYPE": 0, "CLASSIFICATION_TYPE": "U", "NORAD_CAT_ID": 66908, "ELEMENT_SET_NO": 999, "REV_AT_EPOCH": 176, "BSTAR": 0.0011749289, "MEAN_MOTION_DOT": 0.0007141, "MEAN_MOTION_DDOT": 0}, "tle": {"line1": "1 66908U 98067XU  25347.69234256  .00071410  00000+0  11749-2 0  9993", "line2": "2 66908  51.6298 137.6510 0004467 231.5910 128.4679 15.51689462  1765"}}, "geometry": {"type": "Point", "coordinates": [-155.70775516872013, 49.9611682465498]}}, {"type": "Feature", "properties": {"norad_id": 66909, "name": "SILVERSAT", "group": "stations", "lat": 50.60539877669278, "lon": -151.52139551306598, "alt_km": 406.85728723050033, "timestamp": "2025-12-14T11:29:48.821864+00:00", "meta": {"OBJECT_NAME": "SILVERSAT", "OBJECT_ID": "1998-067XV", "EPOCH": "2025-12-13T16:36:20.876256", "MEAN_MOTION": 15.51801579, "ECCENTRICITY": 0.00043516, "INCLINATION": 51.6299, "RA_OF_ASC_NODE": 137.6482, "ARG_OF_PERICENTER": 233.7111, "MEAN_ANOMALY": 126.3477, "EPHEMERIS_TYPE": 0, "CLASSIFICATION_TYPE": "U", "NORAD_CAT_ID": 66909, "ELEMENT_SET_NO": 999, "REV_AT_EPOCH": 176, "BSTAR": 0.0012037928, "MEAN_MOTION_DOT": 0.0007349, "MEAN_MOTION_DDOT": 0}, "tle": {"line1": "1 66909U 98067XV  25347.69190829  .00073490  00000+0  12038-2 0  9993", "line2": "2 66909  51.6299 137.6482 0004351 233.7111 126.3477 15.51801579  1762"}}, "geometry": {"type": "Point", "coordinates": [-151.52139551306598, 50.60539877669278]}}, {"type": "Feature", "properties": {"norad_id": 66910, "name": "1998-067XW", "group": "stations", "lat": 51.60607441990618, "lon": -137.2347256521368, "alt_km": 405.8420549160819, "timestamp": "2025-12-14T11:29:48.821874+00:00", "meta": {"OBJECT_NAME": "1998-067XW", "OBJECT_ID": "1998-067XW", "EPOCH": "2025-12-13T16:34:05.866752", "MEAN_MOTION": 15.51910394, "ECCENTRICITY": 0.00050843, "INCLINATION": 51.6299, "RA_OF_ASC_NODE": 137.6381, "ARG_OF_PERICENTER": 213.9756, "MEAN_ANOMALY": 146.0909, "EPHEMERIS_TYPE": 0, "CLASSIFICATION_TYPE": "U", "NORAD_CAT_ID": 66910, "ELEMENT_SET_NO": 999, "REV_AT_EPOCH": 176, "BSTAR": 0.001065728, "MEAN_MOTION_DOT": 0.00065203, "MEAN_MOTION_DDOT": 0}, "tle": {"line1": "1 66910U 98067XW  25347.69034568  .00065203  00000+0  10657-2 0  9990", "line2": "2 66910  51.6299 137.6381 0005084 213.9756 146.0909 15.51910394  1766"}}, "geometry": {"type": "Point", "coordinates": [-137.2347256521368, 51.60607441990618]}}]}